NUSAT-1 (FRESCO)        
1 41557U 16033B   22173.19589966  .00012589  00000+0  37453-3 0  9992
2 41557  97.3880 270.8994 0010378   9.1657  27.7164 15.34814633338116
BEESAT-4                
1 41619U 16040W   22172.62472892  .00013749  00000+0  45687-3 0  9992
2 41619  97.2163 223.1425 0011373 102.9693 257.2820 15.31243513321364
CAS-2T & KS-1Q          
1 41847U 16066G   22173.14211950  .00000893  00000+0  14388-3 0  9997
2 41847  98.5508 237.8091 0363551 195.6794 163.2893 14.38590959295028
NAYIF-1 (EO-88)         
1 42017U 17008BX  22173.51976188  .00015641  00000+0  46546-3 0  9994
2 42017  97.2684 239.5600 0004475 205.7159 154.3863 15.34793400297853
ZHUHAI-1 02 (CAS-4B)    
1 42759U 17034B   22173.53221663  .00004336  00000+0  26098-3 0  9998
2 42759  43.0182 304.7062 0010229 317.0947 133.9097 15.11954383277125
ZHUHAI-1 01 (CAS-4A)    
1 42761U 17034D   22173.43026977  .00004162  00000+0  25040-3 0  9994
2 42761  43.0181 304.0546 0010519 317.9628 104.2932 15.12042698277110
MAX VALIER SAT          
1 42778U 17036P   22173.36916704  .00007770  00000+0  29476-3 0  9997
2 42778  97.2048 214.3013 0009021 315.3080  44.7432 15.27086934277652
RADFXSAT (FOX-1B)       
1 43017U 17073E   22173.50533114  .00002695  00000+0  20583-3 0  9992
2 43017  97.6752  67.4929 0248756 170.9625 189.6193 14.81421224247865
FOX-1D (AO-92)          
1 43137U 18004AC  22173.00241129  .00008607  00000+0  30352-3 0  9991
2 43137  97.3682 248.1177 0006999 358.4758   1.6460 15.29483141247039
DIWATA-2B               
1 43678U 18084H   22173.14350605  .00001288  00000+0  13220-3 0  9997
2 43678  97.9716 306.4639 0008404 269.6166  90.4071 14.92183347198553
ES'HAIL 2               
1 43700U 18090A   22173.10257889  .00000141  00000+0  00000+0 0  9991
2 43700   0.0187  20.9656 0001153  89.7264 222.2763  1.00271808 13315
FOX-1CLIFF (AO-95)      
1 43770U 18099N   22173.47156448  .00002933  00000+0  26311-3 0  9994
2 43770  97.6208 239.6912 0012304 256.3686 103.6165 14.96463819193762
ITASAT 1                
1 43786U 18099AE  22172.59518162  .00002343  00000+0  21043-3 0  9990
2 43786  97.6226 239.7584 0013275 251.3990 108.5790 14.96598294193670
JY1SAT (JO-97)          
1 43803U 18099AX  22172.87894539  .00002784  00000+0  24587-3 0  9991
2 43803  97.6201 239.7915 0012838 249.5445 110.4399 14.97105471193735
UWE-4                   
1 43880U 18111E   22173.00909404  .00002708  00000+0  23302-3 0  9995
2 43880  97.6671  79.2399 0010398 309.6108  50.4196 14.98179545188384
NEXUS (FO-99)           
1 43937U 19003F   22172.61452665  .00011543  00000+0  38736-3 0  9991
2 43937  97.1300 205.8034 0022285 135.8731 224.4294 15.30783221190613
PSAT2 (NO-104)          
1 44354U 19036R   22173.26145666  .00079158 -46961-5  70228-3 0  9994
2 44354  28.5237 145.0168 0227784  24.8333 336.3040 15.40433536165417
JAISAT-1                
1 44419U 19038F   22172.85531866  .00007755  00000+0  38933-3 0  9991
2 44419  97.6355 143.0131 0021206 114.0403 246.3053 15.17385051163724
DUCHIFAT-3              
1 44854U 19089C   22173.09630196  .00003678  00000+0  28765-3 0  9995
2 44854  36.9656  72.8178 0009372 266.3550  93.6101 15.01110850138636
CAS-6 (TO-108)          
1 44881U 19093C   22173.23813399  .00000623  00000+0  85590-4 0  9991
2 44881  97.8927 252.3788 0015282 165.3355 194.8316 14.81734261135480
RS-44 & BREEZE-KM R/B   
1 44909U 19096E   22172.64708963  .00000000  00000+0 -35655-4 0  9996
2 44909  82.5214 227.4893 0216433 310.1409  48.0907 12.79713524116043
ORBITAL FACTORY 2 (OF-2)
1 45113U 19071C   22172.82976674  .00024175  00000+0  49958-3 0  9991
2 45113  51.6396  37.8322 0010077 182.9837 177.1092 15.45640137134050
HUSKYSAT-1 (HO-107)     
1 45119U 19071J   22173.03223961  .00021354  00000+0  45678-3 0  9996
2 45119  51.6396  36.9094 0009873 180.4998 179.5981 15.44705816134075
BY70-2                  
1 45857U 20042B   22173.22709988  .00007233  00000+0  96417-3 0  9991
2 45857  97.9547 250.0216 0012500 102.8238 257.4382 14.79871340106169
SALSAT                  
1 46495U 20068K   22172.81868710  .00001493  00000+0  11084-3 0  9990
2 46495  97.7296 114.1204 0014469 262.1043  97.8541 15.04534698 94849
BY70-3                  
1 46839U 20079N   22173.43192336  .00023908  00000+0  55770-3 0  9992
2 46839  97.1978 245.4604 0003756 320.9807  97.9796 15.42217954 91016
RADFXSAT-2 (AO-109)     
1 47311U 21002C   22172.86039673  .00007088  00000+0  28846-3 0  9990
2 47311  60.6867 345.6572 0016815 339.6949  20.3468 15.25368601 79137
UVSQ-SAT                
1 47438U 21006AB  22173.09934096  .00005427  00000+0  28766-3 0  9999
2 47438  97.4369 232.0141 0010327 255.5332 104.4755 15.15747544 77987
DIY-1 (ARDUIQUBE)       
1 47963U 21022AH  22172.64360876  .00014126  00000+0  78619-3 0  9997
2 47963  97.5320  73.9537 0019135 114.2753 246.0479 15.13598715 67586
XW-3 (CAS-9)            
1 50466U 21131B   22173.18021315  .00000146  00000+0  62303-4 0  9993
2 50466  98.5805 250.4319 0005764 128.0930 232.0777 14.38502444 25591
TEVEL-3                 
1 50988U 22002E   22173.25183532  .00007676  00000+0  42003-3 0  9997
2 50988  97.4815 240.1538 0010769  55.8344  15.0179 15.14481514 24149
TEVEL-8                 
1 50989U 22002F   22173.45267454  .00007558  00000+0  41420-3 0  9997
2 50989  97.4824 240.3688 0010738  54.3748   2.0193 15.14432027 24176
TEVEL-5                 
1 50998U 22002Q   22173.13158884  .00007533  00000+0  40666-3 0  9992
2 50998  97.4802 240.1269 0012167  50.5226 339.7843 15.14953227 24130
TEVEL-6                 
1 50999U 22002R   22173.13123090  .00007518  00000+0  40587-3 0  9999
2 50999  97.4801 240.1255 0012109  50.1174 340.1692 15.14957363 24132
TEVEL-1                 
1 51013U 22002AF  22173.25409050  .00007642  00000+0  41848-3 0  9992
2 51013  97.4807 240.1404 0010577  55.3010  15.4371 15.14457554 24149
TEVEL-7                 
1 51062U 22002CG  22173.25296038  .00007537  00000+0  41322-3 0  9996
2 51062  97.4817 240.1623 0010766  54.0008 347.0186 15.14418825 24146
TEVEL-4                 
1 51063U 22002CH  22173.25345628  .00007510  00000+0  41185-3 0  9995
2 51063  97.4818 240.1613 0010708  53.8704 347.1798 15.14410969 24144
TEVEL-2                 
1 51069U 22002CP  22173.25318075  .00007708  00000+0  42183-3 0  9995
2 51069  97.4806 240.1450 0010696  55.6884  16.9163 15.14474112 24148
